$$SOE
2461302.500000000, A.D. 2026-Sep-19 00:00:00.0000, -8.312714684452850E+07, 4.018931398467622E+08, -1.865257765154375E+08,
2461309.500000000, A.D. 2026-Sep-26 00:00:00.0000, -9.267309635984133E+07, 4.016595529915453E+08, -1.861063864035895E+08,
2461316.500000000, A.D. 2026-Oct-03 00:00:00.0000, -1.021705451461485E+08, 4.012152271070283E+08, -1.855892744559904E+08,
2461323.500000000, A.D. 2026-Oct-10 00:00:00.0000, -1.116150203927626E+08, 4.005623869446296E+08, -1.849756321754828E+08,
2461330.500000000, A.D. 2026-Oct-17 00:00:00.0000, -1.210021480560989E+08, 3.997032791216573E+08, -1.842666582447602E+08,
2461337.500000000, A.D. 2026-Oct-24 00:00:00.0000, -1.303276492711401E+08, 3.986401703411828E+08, -1.834635578216145E+08,
2461344.500000000, A.D. 2026-Oct-31 00:00:00.0000, -1.395873367724275E+08, 3.973753456271272E+08, -1.825675419370773E+08,
2461351.500000000, A.D. 2026-Nov-07 00:00:00.0000, -1.487771109860960E+08, 3.959111066382282E+08, -1.815798270165436E+08,
2461358.500000000, A.D. 2026-Nov-14 00:00:00.0000, -1.578929555925528E+08, 3.942497709388488E+08, -1.805016344654996E+08,
2461365.500000000, A.D. 2026-Nov-21 00:00:00.0000, -1.669309343712663E+08, 3.923936729004574E+08, -1.793341900946311E+08,
2461372.500000000, A.D. 2026-Nov-28 00:00:00.0000, -1.758871903234892E+08, 3.903451632176756E+08, -1.780787235343939E+08,
2461379.500000000, A.D. 2026-Dec-05 00:00:00.0000, -1.847579434518625E+08, 3.881066063732590E+08, -1.767364680190671E+08,
2461386.500000000, A.D. 2026-Dec-12 00:00:00.0000, -1.935394870318984E+08, 3.856803791556938E+08, -1.753086602977289E+08,
2461393.500000000, A.D. 2026-Dec-19 00:00:00.0000, -2.022281842605954E+08, 3.830688702298473E+08, -1.737965404955355E+08,
2461400.500000000, A.D. 2026-Dec-26 00:00:00.0000, -2.108204654221365E+08, 3.802744798856179E+08, -1.722013519788857E+08,
2461407.500000000, A.D. 2027-Jan-02 00:00:00.0000, -2.193128252936896E+08, 3.772996197664421E+08, -1.705243412613041E+08,
2461414.500000000, A.D. 2027-Jan-09 00:00:00.0000, -2.277018206742953E+08, 3.741467125914084E+08, -1.687667579561672E+08,
2461421.500000000, A.D. 2027-Jan-16 00:00:00.0000, -2.359840680018485E+08, 3.708181918744659E+08, -1.669298547768520E+08,
2461428.500000000, A.D. 2027-Jan-23 00:00:00.0000, -2.441562410123661E+08, 3.673165015966635E+08, -1.650148875903000E+08,
2461435.500000000, A.D. 2027-Jan-30 00:00:00.0000, -2.522150682536302E+08, 3.636440957795740E+08, -1.630231155435905E+08,
2461442.500000000, A.D. 2027-Feb-06 00:00:00.0000, -2.601573300282316E+08, 3.598034382958372E+08, -1.609558012729571E+08,
2461449.500000000, A.D. 2027-Feb-13 00:00:00.0000, -2.679798552265588E+08, 3.557970041326293E+08, -1.588142110519368E+08,
2461456.500000000, A.D. 2027-Feb-20 00:00:00.0000, -2.756795204136960E+08, 3.516272813142862E+08, -1.565996147258378E+08,
2461463.500000000, A.D. 2027-Feb-27 00:00:00.0000, -2.832532497725572E+08, 3.472967702675237E+08, -1.543132858216801E+08,
2461470.500000000, A.D. 2027-Mar-06 00:00:00.0000, -2.906980128839615E+08, 3.428079825474194E+08, -1.519565019510309E+08,
2461477.500000000, A.D. 2027-Mar-13 00:00:00.0000, -2.980108219443498E+08, 3.381634409708887E+08, -1.495305451912255E+08,
2461484.500000000, A.D. 2027-Mar-20 00:00:00.0000, -3.051887295497257E+08, 3.333656803219614E+08, -1.470367024097756E+08,
2461491.500000000, A.D. 2027-Mar-27 00:00:00.0000, -3.122288268420352E+08, 3.284172480783924E+08, -1.444762655945783E+08,
2461498.500000000, A.D. 2027-Apr-03 00:00:00.0000, -3.191282418135456E+08, 3.233207051100113E+08, -1.418505322114321E+08,
2461505.500000000, A.D. 2027-Apr-10 00:00:00.0000, -3.258841377067550E+08, 3.180786263701446E+08, -1.391608055917023E+08,
2461512.500000000, A.D. 2027-Apr-17 00:00:00.0000, -3.324937114866999E+08, 3.126936015642870E+08, -1.364083953525587E+08,
2461519.500000000, A.D. 2027-Apr-24 00:00:00.0000, -3.389541923055041E+08, 3.071682357325085E+08, -1.335946178614130E+08,
2461526.500000000, A.D. 2027-May-01 00:00:00.0000, -3.452628396586924E+08, 3.015051497721506E+08, -1.307207967690736E+08,
2461533.500000000, A.D. 2027-May-08 00:00:00.0000, -3.514169409252977E+08, 2.957069816479375E+08, -1.277882635780216E+08,
2461540.500000000, A.D. 2027-May-15 00:00:00.0000, -3.574138097888449E+08, 2.897763892420557E+08, -1.247983580304489E+08,
2461547.500000000, A.D. 2027-May-22 00:00:00.0000, -3.632507871033710E+08, 2.837160522530173E+08, -1.217524283847463E+08,
2461554.500000000, A.D. 2027-May-29 00:00:00.0000, -3.689252408470427E+08, 2.775286716750911E+08, -1.186518320073687E+08,
2461561.500000000, A.D. 2027-Jun-05 00:00:00.0000, -3.744345642777097E+08, 2.712169699881425E+08, -1.154979361038919E+08,
2461568.500000000, A.D. 2027-Jun-12 00:00:00.0000, -3.797761742993724E+08, 2.647836924889372E+08, -1.122921183699986E+08,
2461575.500000000, A.D. 2027-Jun-19 00:00:00.0000, -3.849475103716292E+08, 2.582316088296609E+08, -1.090357676088004E+08,
2461582.500000000, A.D. 2027-Jun-26 00:00:00.0000, -3.899460336830449E+08, 2.515635145028092E+08, -1.057302843612087E+08,
2461589.500000000, A.D. 2027-Jul-03 00:00:00.0000, -3.947692264569255E+08, 2.447822322808640E+08, -1.023770815603794E+08,
2461596.500000000, A.D. 2027-Jul-10 00:00:00.0000, -3.994145913537146E+08, 2.378906136196674E+08, -9.897758521260820E+07,
2461603.500000000, A.D. 2027-Jul-17 00:00:00.0000, -4.038796509350678E+08, 2.308915399870220E+08, -9.553323511100140E+07,
2461610.500000000, A.D. 2027-Jul-24 00:00:00.0000, -4.081619470348470E+08, 2.237879240543364E+08, -9.204548560130319E+07,
2461617.500000000, A.D. 2027-Jul-31 00:00:00.0000, -4.122590396274065E+08, 2.165827109876162E+08, -8.851580641828346E+07,
2461624.500000000, A.D. 2027-Aug-07 00:00:00.0000, -4.161685053959275E+08, 2.092788809903774E+08, -8.494568348013094E+07,
2461631.500000000, A.D. 2027-Aug-14 00:00:00.0000, -4.198879383047264E+08, 2.018794528464956E+08, -8.133661945082664E+07,
2461638.500000000, A.D. 2027-Aug-21 00:00:00.0000, -4.234149515597575E+08, 1.943874851013940E+08, -7.769013440245172E+07,
2461645.500000000, A.D. 2027-Aug-28 00:00:00.0000, -4.267471775259624E+08, 1.868060760862963E+08, -7.400776679281047E+07,
2461652.500000000, A.D. 2027-Sep-04 00:00:00.0000, -4.298822667829691E+08, 1.791383652863697E+08, -7.029107444453286E+07,
2461659.500000000, A.D. 2027-Sep-11 00:00:00.0000, -4.328178877183132E+08, 1.713875353902126E+08, -6.654163545232383E+07,
2461666.500000000, A.D. 2027-Sep-18 00:00:00.0000, -4.355517265302228E+08, 1.635568143710206E+08, -6.276104908505026E+07,
2461673.500000000, A.D. 2027-Sep-25 00:00:00.0000, -4.380814874165276E+08, 1.556494775233428E+08, -5.895093671137833E+07,
2461680.500000000, A.D. 2027-Oct-02 00:00:00.0000, -4.404048928800910E+08, 1.476688494852369E+08, -5.511294275484511E+07,
2461687.500000000, A.D. 2027-Oct-09 00:00:00.0000, -4.425196841334350E+08, 1.396183062439125E+08, -5.124873568175380E+07,
2461694.500000000, A.D. 2027-Oct-16 00:00:00.0000, -4.444236215441526E+08, 1.315012770723736E+08, -4.736000903279228E+07,
2461701.500000000, A.D. 2027-Oct-23 00:00:00.0000, -4.461144848658509E+08, 1.233212463932623E+08, -4.344848252306027E+07,
2461708.500000000, A.D. 2027-Oct-30 00:00:00.0000, -4.475900728846143E+08, 1.150817561814881E+08, -3.951590319525088E+07,
2461715.500000000, A.D. 2027-Nov-06 00:00:00.0000, -4.488482036498247E+08, 1.067864100343103E+08, -3.556404642739570E+07,
2461722.500000000, A.D. 2027-Nov-13 00:00:00.0000, -4.498867172821172E+08, 9.843887683315538E+07, -3.159471678338305E+07,
2461729.500000000, A.D. 2027-Nov-20 00:00:00.0000, -4.507034784644985E+08, 9.004289181309880E+07, -2.760974915150962E+07,
2461736.500000000, A.D. 2027-Nov-27 00:00:00.0000, -4.512963770045446E+08, 8.160225800568414E+07, -2.361101007682914E+07,
2461743.500000000, A.D. 2027-Dec-04 00:00:00.0000, -4.516633284974900E+08, 7.312084896789426E+07, -1.960039902677729E+07,
2461750.500000000, A.D. 2027-Dec-11 00:00:00.0000, -4.518022756501007E+08, 6.460261183234745E+07, -1.557984961858896E+07,
2461757.500000000, A.D. 2027-Dec-18 00:00:00.0000, -4.517111900003558E+08, 5.605157033968699E+07, -1.155133086142436E+07,
2461764.500000000, A.D. 2027-Dec-25 00:00:00.0000, -4.513880738905955E+08, 4.747182785085747E+07, -7.516848426856151E+06,
2461771.500000000, A.D. 2028-Jan-01 00:00:00.0000, -4.508309626626285E+08, 3.886757035297316E+07, -3.478445949573107E+06,
$$EOE